STARLINK-1434           
1 45712U 20035BH  26068.24137979  .00054112  00000+0  20295-2 0  9995
2 45712  53.0547  22.1128 0005343  88.0400 272.1210 15.26724568319325
STARLINK-32494          
1 62053U 24216X   26068.55623014  .00032063  00000+0  11691-2 0  9992
2 62053  42.9985 264.1302 0001508 260.6678  99.4003 15.27593993 73774
